{
  "norad_id": 53609,
  "name": "STARLINK-4660",
  "history": [
    {
      "epoch": "2026-03-28T14:19:19.089408Z",
      "apogee_km": 540.5686926666003,
      "perigee_km": 538.8987186782506,
      "latitude_deg": -1.4677319089023845e-05,
      "longitude_deg": 113.09943170034587,
      "height_km": 540.6804189088843,
      "semi_major_axis_km": 6917.870705672425,
      "eccentricity": 0.0001207,
      "inclination_deg": 53.216,
      "raan_deg": 153.9439,
      "arg_perigee_deg": 93.4976,
      "mean_anomaly_deg": 266.6154,
      "mean_motion_rev_day": 15.08843168
    },
    {
      "epoch": "2026-03-30T04:28:34.804416Z",
      "apogee_km": 540.6295395388279,
      "perigee_km": 538.8654789889652,
      "latitude_deg": -3.670289799144299e-05,
      "longitude_deg": -107.92020741298056,
      "height_km": 540.8436939479838,
      "semi_major_axis_km": 6917.884509263896,
      "eccentricity": 0.0001275,
      "inclination_deg": 53.2166,
      "raan_deg": 146.8067,
      "arg_perigee_deg": 103.1324,
      "mean_anomaly_deg": 256.981,
      "mean_motion_rev_day": 15.08838652
    },
    {
      "epoch": "2026-03-30T10:50:07.688832Z",
      "apogee_km": 540.5676478870264,
      "perigee_km": 538.9512122071819,
      "latitude_deg": 5.2257738649295095e-06,
      "longitude_deg": 155.24234529262074,
      "height_km": 540.6792685277221,
      "semi_major_axis_km": 6917.896430047103,
      "eccentricity": 0.00011683,
      "inclination_deg": 53.216,
      "raan_deg": 145.6174,
      "arg_perigee_deg": 91.7031,
      "mean_anomaly_deg": 268.4095,
      "mean_motion_rev_day": 15.08834752
    },
    {
      "epoch": "2026-03-30T20:22:26.439168Z",
      "apogee_km": 540.5873929207264,
      "perigee_km": 538.9208729468028,
      "latitude_deg": 6.93397937265652e-05,
      "longitude_deg": 9.988033033545358,
      "height_km": 540.6469039451154,
      "semi_major_axis_km": 6917.891132933764,
      "eccentricity": 0.00012045,
      "inclination_deg": 53.2163,
      "raan_deg": 143.8329,
      "arg_perigee_deg": 89.7923,
      "mean_anomaly_deg": 270.3208,
      "mean_motion_rev_day": 15.08836485
    },
    {
      "epoch": "2026-03-31T12:16:17.491584Z",
      "apogee_km": 540.5559407167138,
      "perigee_km": 538.9231834905268,
      "latitude_deg": -2.596162701993179e-05,
      "longitude_deg": 127.89875694073423,
      "height_km": 540.6217767838682,
      "semi_major_axis_km": 6917.87656210362,
      "eccentricity": 0.00011801,
      "inclination_deg": 53.2161,
      "raan_deg": 140.8593,
      "arg_perigee_deg": 89.0451,
      "mean_anomaly_deg": 271.0676,
      "mean_motion_rev_day": 15.08841252
    },
    {
      "epoch": "2026-04-01T20:04:00.500160Z",
      "apogee_km": 540.5558483264404,
      "perigee_km": 538.9398304279612,
      "latitude_deg": -3.1711664454402024e-05,
      "longitude_deg": 3.7163662248387586,
      "height_km": 540.5711596874091,
      "semi_major_axis_km": 6917.8848393772005,
      "eccentricity": 0.0001168,
      "inclination_deg": 53.2157,
      "raan_deg": 134.9119,
      "arg_perigee_deg": 84.8535,
      "mean_anomaly_deg": 275.259,
      "mean_motion_rev_day": 15.08838544
    },
    {
      "epoch": "2026-04-02T19:54:47.357856Z",
      "apogee_km": 540.5490658448671,
      "perigee_km": 538.9178319930124,
      "latitude_deg": 4.388251517049555e-05,
      "longitude_deg": 0.5820480457854544,
      "height_km": 540.5437820430083,
      "semi_major_axis_km": 6917.8704489189395,
      "eccentricity": 0.0001179,
      "inclination_deg": 53.2163,
      "raan_deg": 130.4521,
      "arg_perigee_deg": 83.982,
      "mean_anomaly_deg": 276.1307,
      "mean_motion_rev_day": 15.08843252
    },
    {
      "epoch": "2026-04-02T19:54:47.358720Z",
      "apogee_km": 540.5493425596851,
      "perigee_km": 538.9175552781944,
      "latitude_deg": 4.0199077354669415e-05,
      "longitude_deg": 0.5820416971182434,
      "height_km": 540.5437530338041,
      "semi_major_axis_km": 6917.8704489189395,
      "eccentricity": 0.00011794,
      "inclination_deg": 53.2163,
      "raan_deg": 130.4521,
      "arg_perigee_deg": 83.982,
      "mean_anomaly_deg": 276.1307,
      "mean_motion_rev_day": 15.08843252
    },
    {
      "epoch": "2026-04-03T11:48:38.985696Z",
      "apogee_km": 540.6265997422115,
      "perigee_km": 538.8563146450151,
      "latitude_deg": 6.527864810174598e-05,
      "longitude_deg": 118.49145374896703,
      "height_km": 540.5103147487123,
      "semi_major_axis_km": 6917.878457193613,
      "eccentricity": 0.00012795,
      "inclination_deg": 53.2162,
      "raan_deg": 127.4795,
      "arg_perigee_deg": 81.761,
      "mean_anomaly_deg": 278.3528,
      "mean_motion_rev_day": 15.08840632
    },
    {
      "epoch": "2026-04-04T11:39:25.966080Z",
      "apogee_km": 540.6317390150489,
      "perigee_km": 538.8495553755774,
      "latitude_deg": 3.588552169492268e-05,
      "longitude_deg": 115.3548436248253,
      "height_km": 540.5948524507463,
      "semi_major_axis_km": 6917.877647195312,
      "eccentricity": 0.00012881,
      "inclination_deg": 53.2165,
      "raan_deg": 123.018,
      "arg_perigee_deg": 87.3305,
      "mean_anomaly_deg": 272.7835,
      "mean_motion_rev_day": 15.08840897
    },
    {
      "epoch": "2026-04-05T08:19:27.250752Z",
      "apogee_km": 540.6387937512445,
      "perigee_km": 538.8867664529353,
      "latitude_deg": 2.4388830999791322e-06,
      "longitude_deg": 160.63430034928632,
      "height_km": 540.6084864427738,
      "semi_major_axis_km": 6917.89978010209,
      "eccentricity": 0.00012663,
      "inclination_deg": 53.2161,
      "raan_deg": 119.1516,
      "arg_perigee_deg": 86.7285,
      "mean_anomaly_deg": 273.3852,
      "mean_motion_rev_day": 15.08833656
    },
    {
      "epoch": "2026-04-06T04:59:27.979008Z",
      "apogee_km": 540.5880943365673,
      "perigee_km": 538.9194990764017,
      "latitude_deg": -4.614285946032276e-05,
      "longitude_deg": -154.08393000859334,
      "height_km": 540.5646934405969,
      "semi_major_axis_km": 6917.890796706484,
      "eccentricity": 0.0001206,
      "inclination_deg": 53.2162,
      "raan_deg": 115.2852,
      "arg_perigee_deg": 84.1587,
      "mean_anomaly_deg": 275.9542,
      "mean_motion_rev_day": 15.08836595
    },
    {
      "epoch": "2026-04-07T09:36:24.631776Z",
      "apogee_km": 540.611300036433,
      "perigee_km": 538.9090822535809,
      "latitude_deg": 2.7213824686081535e-05,
      "longitude_deg": 130.15416164224868,
      "height_km": 540.5902297247704,
      "semi_major_axis_km": 6917.897191145007,
      "eccentricity": 0.00012303,
      "inclination_deg": 53.2166,
      "raan_deg": 109.9345,
      "arg_perigee_deg": 85.5686,
      "mean_anomaly_deg": 274.5447,
      "mean_motion_rev_day": 15.08834503
    },
    {
      "epoch": "2026-04-07T17:33:20.299680Z",
      "apogee_km": 540.6097140464481,
      "perigee_km": 538.8982278202393,
      "latitude_deg": 3.36406609589289e-05,
      "longitude_deg": 9.109070371597085,
      "height_km": 540.5967571337745,
      "semi_major_axis_km": 6917.890970933343,
      "eccentricity": 0.0001237,
      "inclination_deg": 53.2165,
      "raan_deg": 108.4478,
      "arg_perigee_deg": 86.4497,
      "mean_anomaly_deg": 273.6637,
      "mean_motion_rev_day": 15.08836538
    },
    {
      "epoch": "2026-04-08T09:27:12.002688Z",
      "apogee_km": 540.6112942611617,
      "perigee_km": 538.9094915025116,
      "latitude_deg": 9.491555398909461e-06,
      "longitude_deg": 127.01812606643298,
      "height_km": 540.700999659327,
      "semi_major_axis_km": 6917.897392881836,
      "eccentricity": 0.000123,
      "inclination_deg": 53.2166,
      "raan_deg": 105.4752,
      "arg_perigee_deg": 93.0186,
      "mean_anomaly_deg": 267.0947,
      "mean_motion_rev_day": 15.08834437
    },
    {
      "epoch": "2026-04-09T07:42:35.757216Z",
      "apogee_km": 540.6031286094149,
      "perigee_km": 538.8945491649265,
      "latitude_deg": 5.064697246302348e-05,
      "longitude_deg": 148.09093064096143,
      "height_km": 540.5944988428216,
      "semi_major_axis_km": 6917.88583888717,
      "eccentricity": 0.00012349,
      "inclination_deg": 53.2165,
      "raan_deg": 101.311,
      "arg_perigee_deg": 86.6367,
      "mean_anomaly_deg": 273.4767,
      "mean_motion_rev_day": 15.08838217
    },
    {
      "epoch": "2026-04-10T05:57:59.405472Z",
      "apogee_km": 540.5801654929219,
      "perigee_km": 538.9027183283279,
      "latitude_deg": -4.8218130718758874e-05,
      "longitude_deg": 169.1638753545748,
      "height_km": 540.5711025262922,
      "semi_major_axis_km": 6917.878441910625,
      "eccentricity": 0.00012124,
      "inclination_deg": 53.2163,
      "raan_deg": 97.1466,
      "arg_perigee_deg": 85.4767,
      "mean_anomaly_deg": 274.6363,
      "mean_motion_rev_day": 15.08840637
    },
    {
      "epoch": "2026-04-11T05:48:46.626048Z",
      "apogee_km": 540.6506496161055,
      "perigee_km": 538.8423148738466,
      "latitude_deg": 6.1637447117839e-05,
      "longitude_deg": 166.0269635607143,
      "height_km": 540.5597203999529,
      "semi_major_axis_km": 6917.883482244976,
      "eccentricity": 0.0001307,
      "inclination_deg": 53.2156,
      "raan_deg": 92.6857,
      "arg_perigee_deg": 84.7744,
      "mean_anomaly_deg": 275.3398,
      "mean_motion_rev_day": 15.08838988
    }
  ]
}